<?xml version="1.0" encoding="UTF-8"?>
<ndm xmlns:xsi="http://www.w3.org/2001/XMLSchema-instance" xsi:noNamespaceSchemaLocation="https://sanaregistry.org/r/ndmxml_unqualified/ndmxml-2.0.0-master-2.0.xsd">
<omm id="CCSDS_OMM_VERS" version="2.0">
<header><CREATION_DATE/><ORIGINATOR/></header><body><segment><metadata><OBJECT_NAME>ONEWEB-0102</OBJECT_NAME><OBJECT_ID>2020-100A</OBJECT_ID><CENTER_NAME>EARTH</CENTER_NAME><REF_FRAME>TEME</REF_FRAME><TIME_SYSTEM>UTC</TIME_SYSTEM><MEAN_ELEMENT_THEORY>SGP4</MEAN_ELEMENT_THEORY></metadata><data><meanElements><EPOCH>2024-11-09T13:09:22.295808</EPOCH><MEAN_MOTION>13.12443030</MEAN_MOTION><ECCENTRICITY>.0001367</ECCENTRICITY><INCLINATION>87.8844</INCLINATION><RA_OF_ASC_NODE>107.1103</RA_OF_ASC_NODE><ARG_OF_PERICENTER>89.8828</ARG_OF_PERICENTER><MEAN_ANOMALY>270.2457</MEAN_ANOMALY></meanElements><tleParameters><EPHEMERIS_TYPE>0</EPHEMERIS_TYPE><CLASSIFICATION_TYPE>U</CLASSIFICATION_TYPE><NORAD_CAT_ID>47258</NORAD_CAT_ID><ELEMENT_SET_NO>999</ELEMENT_SET_NO><REV_AT_EPOCH>18804</REV_AT_EPOCH><BSTAR>-.16795E-2</BSTAR><MEAN_MOTION_DOT>-.591E-5</MEAN_MOTION_DOT><MEAN_MOTION_DDOT>0</MEAN_MOTION_DDOT></tleParameters></data></segment></body></omm>
<omm id="CCSDS_OMM_VERS" version="2.0">
<header><CREATION_DATE/><ORIGINATOR/></header><body><segment><metadata><OBJECT_NAME>ONEWEB-0109</OBJECT_NAME><OBJECT_ID>2020-100B</OBJECT_ID><CENTER_NAME>EARTH</CENTER_NAME><REF_FRAME>TEME</REF_FRAME><TIME_SYSTEM>UTC</TIME_SYSTEM><MEAN_ELEMENT_THEORY>SGP4</MEAN_ELEMENT_THEORY></metadata><data><meanElements><EPOCH>2024-11-09T09:41:31.108992</EPOCH><MEAN_MOTION>13.12442403</MEAN_MOTION><ECCENTRICITY>.0001391</ECCENTRICITY><INCLINATION>87.8854</INCLINATION><RA_OF_ASC_NODE>107.1055</RA_OF_ASC_NODE><ARG_OF_PERICENTER>88.4783</ARG_OF_PERICENTER><MEAN_ANOMALY>271.6505</MEAN_ANOMALY></meanElements><tleParameters><EPHEMERIS_TYPE>0</EPHEMERIS_TYPE><CLASSIFICATION_TYPE>U</CLASSIFICATION_TYPE><NORAD_CAT_ID>47259</NORAD_CAT_ID><ELEMENT_SET_NO>999</ELEMENT_SET_NO><REV_AT_EPOCH>18785</REV_AT_EPOCH><BSTAR>.36731E-3</BSTAR><MEAN_MOTION_DOT>.145E-5</MEAN_MOTION_DOT><MEAN_MOTION_DDOT>0</MEAN_MOTION_DDOT></tleParameters></data></segment></body></omm>
<omm id="CCSDS_OMM_VERS" version="2.0">
<header><CREATION_DATE/><ORIGINATOR/></header><body><segment><metadata><OBJECT_NAME>ONEWEB-0110</OBJECT_NAME><OBJECT_ID>2020-100C</OBJECT_ID><CENTER_NAME>EARTH</CENTER_NAME><REF_FRAME>TEME</REF_FRAME><TIME_SYSTEM>UTC</TIME_SYSTEM><MEAN_ELEMENT_THEORY>SGP4</MEAN_ELEMENT_THEORY></metadata><data><meanElements><EPOCH>2024-11-09T08:29:06.041760</EPOCH><MEAN_MOTION>13.12444028</MEAN_MOTION><ECCENTRICITY>.0001492</ECCENTRICITY><INCLINATION>87.8851</INCLINATION><RA_OF_ASC_NODE>107.1128</RA_OF_ASC_NODE><ARG_OF_PERICENTER>87.8173</ARG_OF_PERICENTER><MEAN_ANOMALY>272.3126</MEAN_ANOMALY></meanElements><tleParameters><EPHEMERIS_TYPE>0</EPHEMERIS_TYPE><CLASSIFICATION_TYPE>U</CLASSIFICATION_TYPE><NORAD_CAT_ID>47260</NORAD_CAT_ID><ELEMENT_SET_NO>999</ELEMENT_SET_NO><REV_AT_EPOCH>18801</REV_AT_EPOCH><BSTAR>.12337E-2</BSTAR><MEAN_MOTION_DOT>.457E-5</MEAN_MOTION_DOT><MEAN_MOTION_DDOT>0</MEAN_MOTION_DDOT></tleParameters></data></segment></body></omm>
<omm id="CCSDS_OMM_VERS" version="2.0">
<header><CREATION_DATE/><ORIGINATOR/></header><body><segment><metadata><OBJECT_NAME>ONEWEB-0111</OBJECT_NAME><OBJECT_ID>2020-100D</OBJECT_ID><CENTER_NAME>EARTH</CENTER_NAME><REF_FRAME>TEME</REF_FRAME><TIME_SYSTEM>UTC</TIME_SYSTEM><MEAN_ELEMENT_THEORY>SGP4</MEAN_ELEMENT_THEORY></metadata><data><meanElements><EPOCH>2024-11-09T09:13:29.021952</EPOCH><MEAN_MOTION>13.12443908</MEAN_MOTION><ECCENTRICITY>.0001415</ECCENTRICITY><INCLINATION>87.8854</INCLINATION><RA_OF_ASC_NODE>107.1099</RA_OF_ASC_NODE><ARG_OF_PERICENTER>91.1019</ARG_OF_PERICENTER><MEAN_ANOMALY>269.0271</MEAN_ANOMALY></meanElements><tleParameters><EPHEMERIS_TYPE>0</EPHEMERIS_TYPE><CLASSIFICATION_TYPE>U</CLASSIFICATION_TYPE><NORAD_CAT_ID>47261</NORAD_CAT_ID><ELEMENT_SET_NO>999</ELEMENT_SET_NO><REV_AT_EPOCH>18785</REV_AT_EPOCH><BSTAR>-.88902E-3</BSTAR><MEAN_MOTION_DOT>-.307E-5</MEAN_MOTION_DOT><MEAN_MOTION_DDOT>0</MEAN_MOTION_DDOT></tleParameters></data></segment></body></omm>
<omm id="CCSDS_OMM_VERS" version="2.0">
<header><CREATION_DATE/><ORIGINATOR/></header><body><segment><metadata><OBJECT_NAME>ONEWEB-0114</OBJECT_NAME><OBJECT_ID>2020-100E</OBJECT_ID><CENTER_NAME>EARTH</CENTER_NAME><REF_FRAME>TEME</REF_FRAME><TIME_SYSTEM>UTC</TIME_SYSTEM><MEAN_ELEMENT_THEORY>SGP4</MEAN_ELEMENT_THEORY></metadata><data><meanElements><EPOCH>2024-11-09T09:57:52.906752</EPOCH><MEAN_MOTION>13.12430204</MEAN_MOTION><ECCENTRICITY>.0001083</ECCENTRICITY><INCLINATION>87.8846</INCLINATION><RA_OF_ASC_NODE>107.1131</RA_OF_ASC_NODE><ARG_OF_PERICENTER>100.0702</ARG_OF_PERICENTER><MEAN_ANOMALY>260.0549</MEAN_ANOMALY></meanElements><tleParameters><EPHEMERIS_TYPE>0</EPHEMERIS_TYPE><CLASSIFICATION_TYPE>U</CLASSIFICATION_TYPE><NORAD_CAT_ID>47262</NORAD_CAT_ID><ELEMENT_SET_NO>999</ELEMENT_SET_NO><REV_AT_EPOCH>18781</REV_AT_EPOCH><BSTAR>.94753E-2</BSTAR><MEAN_MOTION_DOT>.3422E-4</MEAN_MOTION_DOT><MEAN_MOTION_DDOT>0</MEAN_MOTION_DDOT></tleParameters></data></segment></body></omm>
<omm id="CCSDS_OMM_VERS" version="2.0">
<header><CREATION_DATE/><ORIGINATOR/></header><body><segment><metadata><OBJECT_NAME>ONEWEB-0117</OBJECT_NAME><OBJECT_ID>2020-100F</OBJECT_ID><CENTER_NAME>EARTH</CENTER_NAME><REF_FRAME>TEME</REF_FRAME><TIME_SYSTEM>UTC</TIME_SYSTEM><MEAN_ELEMENT_THEORY>SGP4</MEAN_ELEMENT_THEORY></metadata><data><meanElements><EPOCH>2024-11-09T09:46:11.060544</EPOCH><MEAN_MOTION>13.12445551</MEAN_MOTION><ECCENTRICITY>.0001488</ECCENTRICITY><INCLINATION>87.8853</INCLINATION><RA_OF_ASC_NODE>107.0963</RA_OF_ASC_NODE><ARG_OF_PERICENTER>92.5985</ARG_OF_PERICENTER><MEAN_ANOMALY>267.5314</MEAN_ANOMALY></meanElements><tleParameters><EPHEMERIS_TYPE>0</EPHEMERIS_TYPE><CLASSIFICATION_TYPE>U</CLASSIFICATION_TYPE><NORAD_CAT_ID>47263</NORAD_CAT_ID><ELEMENT_SET_NO>999</ELEMENT_SET_NO><REV_AT_EPOCH>18782</REV_AT_EPOCH><BSTAR>.71909E-3</BSTAR><MEAN_MOTION_DOT>.271E-5</MEAN_MOTION_DOT><MEAN_MOTION_DDOT>0</MEAN_MOTION_DDOT></tleParameters></data></segment></body></omm>
<omm id="CCSDS_OMM_VERS" version="2.0">
<header><CREATION_DATE/><ORIGINATOR/></header><body><segment><metadata><OBJECT_NAME>ONEWEB-0118</OBJECT_NAME><OBJECT_ID>2020-100G</OBJECT_ID><CENTER_NAME>EARTH</CENTER_NAME><REF_FRAME>TEME</REF_FRAME><TIME_SYSTEM>UTC</TIME_SYSTEM><MEAN_ELEMENT_THEORY>SGP4</MEAN_ELEMENT_THEORY></metadata><data><meanElements><EPOCH>2024-11-09T10:32:53.451456</EPOCH><MEAN_MOTION>13.12439660</MEAN_MOTION><ECCENTRICITY>.0001155</ECCENTRICITY><INCLINATION>87.8847</INCLINATION><RA_OF_ASC_NODE>107.0926</RA_OF_ASC_NODE><ARG_OF_PERICENTER>104.0248</ARG_OF_PERICENTER><MEAN_ANOMALY>256.1009</MEAN_ANOMALY></meanElements><tleParameters><EPHEMERIS_TYPE>0</EPHEMERIS_TYPE><CLASSIFICATION_TYPE>U</CLASSIFICATION_TYPE><NORAD_CAT_ID>47264</NORAD_CAT_ID><ELEMENT_SET_NO>999</ELEMENT_SET_NO><REV_AT_EPOCH>18802</REV_AT_EPOCH><BSTAR>.26209E-3</BSTAR><MEAN_MOTION_DOT>.107E-5</MEAN_MOTION_DOT><MEAN_MOTION_DDOT>0</MEAN_MOTION_DDOT></tleParameters></data></segment></body></omm>
<omm id="CCSDS_OMM_VERS" version="2.0">
<header><CREATION_DATE/><ORIGINATOR/></header><body><segment><metadata><OBJECT_NAME>ONEWEB-0119</OBJECT_NAME><OBJECT_ID>2020-100H</OBJECT_ID><CENTER_NAME>EARTH</CENTER_NAME><REF_FRAME>TEME</REF_FRAME><TIME_SYSTEM>UTC</TIME_SYSTEM><MEAN_ELEMENT_THEORY>SGP4</MEAN_ELEMENT_THEORY></metadata><data><meanElements><EPOCH>2024-11-09T03:53:27.776256</EPOCH><MEAN_MOTION>13.12446857</MEAN_MOTION><ECCENTRICITY>.0001508</ECCENTRICITY><INCLINATION>87.8854</INCLINATION><RA_OF_ASC_NODE>107.1868</RA_OF_ASC_NODE><ARG_OF_PERICENTER>91.0815</ARG_OF_PERICENTER><MEAN_ANOMALY>269.0487</MEAN_ANOMALY></meanElements><tleParameters><EPHEMERIS_TYPE>0</EPHEMERIS_TYPE><CLASSIFICATION_TYPE>U</CLASSIFICATION_TYPE><NORAD_CAT_ID>47265</NORAD_CAT_ID><ELEMENT_SET_NO>999</ELEMENT_SET_NO><REV_AT_EPOCH>18796</REV_AT_EPOCH><BSTAR>-.81404E-3</BSTAR><MEAN_MOTION_DOT>-.28E-5</MEAN_MOTION_DOT><MEAN_MOTION_DDOT>0</MEAN_MOTION_DDOT></tleParameters></data></segment></body></omm>

</ndm>
