ONEWEB-0102             
1 47258U 20100A   24314.54817472 -.00000591  00000+0 -16795-2 0  9997
2 47258  87.8844 107.1103 0001367  89.8828 270.2457 13.12443030188049
ONEWEB-0109             
1 47259U 20100B   24314.40383228  .00000145  00000+0  36731-3 0  9996
2 47259  87.8854 107.1055 0001391  88.4783 271.6505 13.12442403187859
ONEWEB-0110             
1 47260U 20100C   24314.35354215  .00000457  00000+0  12337-2 0  9997
2 47260  87.8851 107.1128 0001492  87.8173 272.3126 13.12444028188018
ONEWEB-0111             
1 47261U 20100D   24314.38436368 -.00000307  00000+0 -88902-3 0  9999
2 47261  87.8854 107.1099 0001415  91.1019 269.0271 13.12443908187852
ONEWEB-0114             
1 47262U 20100E   24314.41519568  .00003422  00000+0  94753-2 0  9997
2 47262  87.8846 107.1131 0001083 100.0702 260.0549 13.12430204187811
ONEWEB-0117             
1 47263U 20100F   24314.40707246  .00000271  00000+0  71909-3 0  9997
2 47263  87.8853 107.0963 0001488  92.5985 267.5314 13.12445551187823
ONEWEB-0118             
1 47264U 20100G   24314.43950754  .00000107  00000+0  26209-3 0  9996
2 47264  87.8847 107.0926 0001155 104.0248 256.1009 13.12439660188020
ONEWEB-0119             
1 47265U 20100H   24314.16212704 -.00000280  00000+0 -81404-3 0  9995
2 47265  87.8854 107.1868 0001508  91.0815 269.0487 13.12446857187963
